{
  "type": "FeatureCollection",
  "features": [
    {
      "type": "Feature",
      "properties": {
        "norad_id": 30556,
        "name": "FENGYUN 1C DEB",
        "group": "fengyun-1c-debris",
        "lat": 9.934613797641363,
        "lon": -13.66238698384716,
        "alt_km": 935.8713209651269,
        "timestamp": "2025-12-20T22:39:10.903436+00:00",
        "meta_object_name": "FENGYUN 1C DEB",
        "meta_object_id": "1999-025AKW",
        "meta_epoch": "2025-12-19T22:52:50.987424",
        "meta_mean_motion": 14.01371538,
        "meta_eccentricity": 0.0068451,
        "meta_inclination": 98.7808,
        "meta_ra_of_asc_node": 346.936,
        "meta_arg_of_pericenter": 217.1455,
        "meta_mean_anomaly": 198.4053,
        "meta_ephemeris_type": 0,
        "meta_classification_type": "U",
        "meta_norad_cat_id": 30556,
        "meta_element_set_no": 999,
        "meta_rev_at_epoch": 96358,
        "meta_bstar": 0.00011344,
        "meta_mean_motion_dot": 1.32e-06,
        "meta_mean_motion_ddot": 0,
        "tle_line1": "1 30556U 99025AKW 25353.95336791  .00000132  00000+0  11344-3 0  9996",
        "tle_line2": "2 30556  98.7808 346.9360 0068451 217.1455 198.4053 14.01371538963585"
      },
      "geometry": {
        "type": "Point",
        "coordinates": [
          -13.66238698384716,
          9.934613797641363
        ]
      }
    },
    {
      "type": "Feature",
      "properties": {
        "norad_id": 30557,
        "name": "FENGYUN 1C DEB",
        "group": "fengyun-1c-debris",
        "lat": 51.506504829340734,
        "lon": 48.65326069518855,
        "alt_km": 897.3551380877316,
        "timestamp": "2025-12-20T22:39:10.903445+00:00",
        "meta_object_name": "FENGYUN 1C DEB",
        "meta_object_id": "1999-025AKX",
        "meta_epoch": "2025-12-20T03:40:45.719616",
        "meta_mean_motion": 14.10830894,
        "meta_eccentricity": 0.00685516,
        "meta_inclination": 98.9202,
        "meta_ra_of_asc_node": 59.2589,
        "meta_arg_of_pericenter": 211.8311,
        "meta_mean_anomaly": 147.8708,
        "meta_ephemeris_type": 0,
        "meta_classification_type": "U",
        "meta_norad_cat_id": 30557,
        "meta_element_set_no": 999,
        "meta_rev_at_epoch": 96405,
        "meta_bstar": 0.00083897282,
        "meta_mean_motion_dot": 1.492e-05,
        "meta_mean_motion_ddot": 0,
        "tle_line1": "1 30557U 99025AKX 25354.15330694  .00001492  00000+0  83897-3 0  9998",
        "tle_line2": "2 30557  98.9202  59.2589 0068551 211.8311 147.8708 14.10830894964059"
      },
      "geometry": {
        "type": "Point",
        "coordinates": [
          48.65326069518855,
          51.506504829340734
        ]
      }
    },
    {
      "type": "Feature",
      "properties": {
        "norad_id": 30558,
        "name": "FENGYUN 1C DEB",
        "group": "fengyun-1c-debris",
        "lat": -47.33484712471583,
        "lon": -55.20127800734139,
        "alt_km": 865.797679147362,
        "timestamp": "2025-12-20T22:39:10.903454+00:00",
        "meta_object_name": "FENGYUN 1C DEB",
        "meta_object_id": "1999-025AKY",
        "meta_epoch": "2025-12-18T02:35:59.256672",
        "meta_mean_motion": 13.28535877,
        "meta_eccentricity": 0.04271131,
        "meta_inclination": 99.4659,
        "meta_ra_of_asc_node": 132.6231,
        "meta_arg_of_pericenter": 260.3076,
        "meta_mean_anomaly": 94.9567,
        "meta_ephemeris_type": 0,
        "meta_classification_type": "U",
        "meta_norad_cat_id": 30558,
        "meta_element_set_no": 999,
        "meta_rev_at_epoch": 90829,
        "meta_bstar": 0.0032374201,
        "meta_mean_motion_dot": 2.396e-05,
        "meta_mean_motion_ddot": 0,
        "tle_line1": "1 30558U 99025AKY 25352.10832473  .00002396  00000+0  32374-2 0  9991",
        "tle_line2": "2 30558  99.4659 132.6231 0427113 260.3076  94.9567 13.28535877908292"
      },
      "geometry": {
        "type": "Point",
        "coordinates": [
          -55.20127800734139,
          -47.33484712471583
        ]
      }
    },
    {
      "type": "Feature",
      "properties": {
        "norad_id": 30560,
        "name": "FENGYUN 1C DEB",
        "group": "fengyun-1c-debris",
        "lat": -10.986096012584426,
        "lon": -9.829041232852465,
        "alt_km": 918.0966097230576,
        "timestamp": "2025-12-20T22:39:10.903464+00:00",
        "meta_object_name": "FENGYUN 1C DEB",
        "meta_object_id": "1999-025ALA",
        "meta_epoch": "2025-12-19T11:50:04.411104",
        "meta_mean_motion": 14.1703364,
        "meta_eccentricity": 0.0115235,
        "meta_inclination": 98.6638,
        "meta_ra_of_asc_node": 347.0612,
        "meta_arg_of_pericenter": 192.2427,
        "meta_mean_anomaly": 319.6449,
        "meta_ephemeris_type": 0,
        "meta_classification_type": "U",
        "meta_norad_cat_id": 30560,
        "meta_element_set_no": 999,
        "meta_rev_at_epoch": 97464,
        "meta_bstar": 0.00019177,
        "meta_mean_motion_dot": 3.69e-06,
        "meta_mean_motion_ddot": 0,
        "tle_line1": "1 30560U 99025ALA 25353.49310661  .00000369  00000+0  19177-3 0  9992",
        "tle_line2": "2 30560  98.6638 347.0612 0115235 192.2427 319.6449 14.17033640974648"
      },
      "geometry": {
        "type": "Point",
        "coordinates": [
          -9.829041232852465,
          -10.986096012584426
        ]
      }
    },
    {
      "type": "Feature",
      "properties": {
        "norad_id": 30561,
        "name": "FENGYUN 1C DEB",
        "group": "fengyun-1c-debris",
        "lat": -77.8845398070759,
        "lon": 42.5184654069678,
        "alt_km": 905.8863007817008,
        "timestamp": "2025-12-20T22:39:10.903473+00:00",
        "meta_object_name": "FENGYUN 1C DEB",
        "meta_object_id": "1999-025ALB",
        "meta_epoch": "2025-12-20T06:36:01.647648",
        "meta_mean_motion": 14.11279945,
        "meta_eccentricity": 0.00607544,
        "meta_inclination": 98.7246,
        "meta_ra_of_asc_node": 356.1973,
        "meta_arg_of_pericenter": 92.9142,
        "meta_mean_anomaly": 29.3256,
        "meta_ephemeris_type": 0,
        "meta_classification_type": "U",
        "meta_norad_cat_id": 30561,
        "meta_element_set_no": 999,
        "meta_rev_at_epoch": 97084,
        "meta_bstar": 0.0002329829,
        "meta_mean_motion_dot": 3.86e-06,
        "meta_mean_motion_ddot": 0,
        "tle_line1": "1 30561U 99025ALB 25354.27501907  .00000386  00000+0  23298-3 0  9993",
        "tle_line2": "2 30561  98.7246 356.1973 0060754  92.9142  29.3256 14.11279945970844"
      },
      "geometry": {
        "type": "Point",
        "coordinates": [
          42.5184654069678,
          -77.8845398070759
        ]
      }
    },
    {
      "type": "Feature",
      "properties": {
        "norad_id": 30562,
        "name": "FENGYUN 1C DEB",
        "group": "fengyun-1c-debris",
        "lat": 45.47563844993759,
        "lon": -108.32392408256946,
        "alt_km": 823.8303758786524,
        "timestamp": "2025-12-20T22:39:10.903483+00:00",
        "meta_object_name": "FENGYUN 1C DEB",
        "meta_object_id": "1999-025ALC",
        "meta_epoch": "2025-12-19T16:24:31.991040",
        "meta_mean_motion": 14.230988,
        "meta_eccentricity": 0.00596146,
        "meta_inclination": 98.7636,
        "meta_ra_of_asc_node": 61.3985,
        "meta_arg_of_pericenter": 245.2693,
        "meta_mean_anomaly": 276.705,
        "meta_ephemeris_type": 0,
        "meta_classification_type": "U",
        "meta_norad_cat_id": 30562,
        "meta_element_set_no": 999,
        "meta_rev_at_epoch": 97098,
        "meta_bstar": 0.0011158859,
        "meta_mean_motion_dot": 2.52e-05,
        "meta_mean_motion_ddot": 0,
        "tle_line1": "1 30562U 99025ALC 25353.68370360  .00002520  00000+0  11159-2 0  9999",
        "tle_line2": "2 30562  98.7636  61.3985 0059614 245.2693 276.7050 14.23098800970980"
      },
      "geometry": {
        "type": "Point",
        "coordinates": [
          -108.32392408256946,
          45.47563844993759
        ]
      }
    },
    {
      "type": "Feature",
      "properties": {
        "norad_id": 30564,
        "name": "FENGYUN 1C DEB",
        "group": "fengyun-1c-debris",
        "lat": -78.83494094507587,
        "lon": 58.16740318579812,
        "alt_km": 1028.3716593826202,
        "timestamp": "2025-12-20T22:39:10.903493+00:00",
        "meta_object_name": "FENGYUN 1C DEB",
        "meta_object_id": "1999-025ALE",
        "meta_epoch": "2025-12-20T07:45:41.565600",
        "meta_mean_motion": 14.05769613,
        "meta_eccentricity": 0.02029337,
        "meta_inclination": 98.7957,
        "meta_ra_of_asc_node": 5.8946,
        "meta_arg_of_pericenter": 97.6743,
        "meta_mean_anomaly": 280.9207,
        "meta_ephemeris_type": 0,
        "meta_classification_type": "U",
        "meta_norad_cat_id": 30564,
        "meta_element_set_no": 999,
        "meta_rev_at_epoch": 96402,
        "meta_bstar": 0.00061717014,
        "meta_mean_motion_dot": 1.172e-05,
        "meta_mean_motion_ddot": 0,
        "tle_line1": "1 30564U 99025ALE 25354.32339775  .00001172  00000+0  61717-3 0  9996",
        "tle_line2": "2 30564  98.7957   5.8946 0202933  97.6743 280.9207 14.05769613964023"
      },
      "geometry": {
        "type": "Point",
        "coordinates": [
          58.16740318579812,
          -78.83494094507587
        ]
      }
    }
  ]
}